index,name,activity,celebrity_indice,ic,phone_number,web_site,adresse,town,transition
1,Bistrot City Lyon Part Dieu,Restaurant,"4,5 (40)",180,+33 4 26 04 17 40,appartcity.com,Ó§¥,Lyon,https://www.google.com/maps/place/Bistrot+City+Lyon+Part+Dieu/data=!4m7!3m6!1s0x47f4ebfe3090bd7d:0x597cfd705a7cff07!8m2!3d45.7528605!4d4.8597908!16s%2Fg%2F11h320fpt3!19sChIJfb2QMP7r9EcRB_98WnD9fFk?authuser=0&hl=fr&rclk=1
2,‚Äç üë®‚Äçüç≥ L'√âtage - Restaurant Gastronomique Lyon,Fran√ßaise,"4,8 (473)",2270,+33 4 78 28 19 59,letage-restaurant.com,Ôïä,Lyon,https://www.google.com/maps/place/%E2%80%8D+%F0%9F%91%A8%E2%80%8D%F0%9F%8D%B3+L%27%C3%89tage+-+Restaurant+Gastronomique+Lyon/data=!4m7!3m6!1s0x47f4eafe922459b1:0x7ea115e4f282106b!8m2!3d45.7678074!4d4.8336357!16s%2Fg%2F1v_nbw1_!19sChIJsVkkkv7q9EcRaxCC8uQVoX4?authuser=0&hl=fr&rclk=1
3,Le Neuvi√®me Art - Restaurant Gastronomique Lyon,Restaurant,"4,8 (743)",3566,+33 4 72 74 12 74,leneuviemeart.com,Ó§¥,Lyon,https://www.google.com/maps/place/Le+Neuvi%C3%A8me+Art+-+Restaurant+Gastronomique+Lyon/data=!4m7!3m6!1s0x47f5b33be65798cd:0x8ac44e3b5cbf85ef!8m2!3d45.7679844!4d4.8563522!16s%2Fg%2F11ckvl_2tp!19sChIJzZhX5juz9UcR74W_XDtOxIo?authuser=0&hl=fr&rclk=1
4,Caf√© Luna,Fran√ßaise,"4,8 (506)",2429,+33 4 72 16 77 42,N/A,Ôïä,Lyon,https://www.google.com/maps/place/Caf%C3%A9+Luna/data=!4m7!3m6!1s0x47f4ebac882758d9:0xb99140b7abbf5c5d!8m2!3d45.7587123!4d4.825864!16s%2Fg%2F1vbnnrd9!19sChIJ2VgniKzr9EcRXVy_q7dAkbk?authuser=0&hl=fr&rclk=1
5,Carmelo,Italienne,"4,8 (22‚ÄØ615)",108552,+33 4 81 69 47 26,bigmammagroup.com,Ó§¥,Lyon,https://www.google.com/maps/place/Carmelo/data=!4m7!3m6!1s0x47f4eb87e91f866d:0x9629fabb993eb66!8m2!3d45.7653129!4d4.8349721!16s%2Fg%2F11fsbbxv6y!19sChIJbYYf6Yfr9EcRZuuTuaufYgk?authuser=0&hl=fr&rclk=1
6,Agastache Restaurant Lyon,Fran√ßaise,"4,9 (675)",3308,+33 4 78 52 30 31,agastache-restaurant-lyon.fr,Ôïä,Lyon,https://www.google.com/maps/place/Agastache+Restaurant+Lyon/data=!4m7!3m6!1s0x47f4eaf4467d1ce5:0xa38df96063266adf!8m2!3d45.7664172!4d4.8476368!16s%2Fg%2F11ckkyst2l!19sChIJ5Rx9RvTq9EcR32omY2D5jaM?authuser=0&hl=fr&rclk=1
7,ART Restaurant Lyon,Fran√ßaise,"4,8 (718)",3446,+33 9 51 54 79 68,art-restaurant.fr,Ó§¥,Lyon,https://www.google.com/maps/place/ART+Restaurant+Lyon/data=!4m7!3m6!1s0x47f4ebfd755b3e3b:0xbe4da45e638b7e8!8m2!3d45.7567929!4d4.8273723!16s%2Fg%2F11ryr5mrf9!19sChIJOz5bdf3r9EcR6Lc45kXa5As?authuser=0&hl=fr&rclk=1
8,Restaurant le Gourmet de S√©ze,Cuisine gastronomique,"4,7 (596)",2801,+33 4 78 24 23 42,legourmetdeseze.com,Ó§¥,Lyon,https://www.google.com/maps/place/Restaurant+le+Gourmet+de+S%C3%A9ze/data=!4m7!3m6!1s0x47f4ea8c3f3ffa4b:0x8b55a1c207ae2529!8m2!3d45.7691348!4d4.8556097!16s%2Fg%2F1tvyl36f!19sChIJS_o_P4zq9EcRKSWuB8KhVYs?authuser=0&hl=fr&rclk=1
9,Les Saveurs du Bistrot,Restaurant,"4,8 (787)",3778,+33 4 37 24 14 25,lessaveursdubistrot.fr,Ó§¥,Lyon,https://www.google.com/maps/place/Les+Saveurs+du+Bistrot/data=!4m7!3m6!1s0x47f4ea8c3c00a9cd:0x27a5e21dd72fe25a!8m2!3d45.7692089!4d4.8561815!16s%2Fg%2F11bwkq8_8l!19sChIJzakAPIzq9EcRWuIv1x3ipSc?authuser=0&hl=fr&rclk=1
10,L'Institut Restaurant,Gastronomie fran√ßaise,"4,8 (1‚ÄØ442)",6922,+33 4 28 31 69 06,linstitut-restaurant.fr,Ó§¥,Lyon,https://www.google.com/maps/place/L%27Institut+Restaurant/data=!4m7!3m6!1s0x47f4ea522ed8c1b1:0xa73ff95f30ca763b!8m2!3d45.7563917!4d4.8332514!16s%2Fg%2F11b5pkn7__!19sChIJscHYLlLq9EcRO3bKMF_5P6c?authuser=0&hl=fr&rclk=1
11,Les Encav√©s,Restaurant,"4,7 (488)",2294,+33 4 72 07 27 79,les-encaves.com,Ó§¥,Lyon,https://www.google.com/maps/place/Les+Encav%C3%A9s/data=!4m7!3m6!1s0x47f4eb3f0b128517:0x42d401e5fdd20f2e!8m2!3d45.7651113!4d4.8272274!16s%2Fg%2F11swcc0h9m!19sChIJF4USCz_r9EcRLg_S_eUB1EI?authuser=0&hl=fr&rclk=1
12,La Table d‚ÄôAmbre,Restaurant,"4,8 (594)",2851,+33 4 72 56 12 76,latabledambre.fr,Ó§¥,Lyon,https://www.google.com/maps/place/La+Table+d%E2%80%99Ambre/data=!4m7!3m6!1s0x47f4eb0ad30fcf2f:0xf6f390590ef9620a!8m2!3d45.751928!4d4.830551!16s%2Fg%2F11f64cnv32!19sChIJL88P0wrr9EcRCmL5DlmQ8_Y?authuser=0&hl=fr&rclk=1
13,RESTAURANT LE VIEUX LYON,Fran√ßaise,"4,5 (2‚ÄØ835)",12758,+33 4 78 42 48 89,restaurant-le-vieux-lyon.com,44 Rue Saint-Jean,Lyon,https://www.google.com/maps/place/RESTAURANT+LE+VIEUX+LYON/data=!4m7!3m6!1s0x47f4ebaae60af80d:0x41316050870114b4!8m2!3d45.7623386!4d4.8274787!16s%2Fg%2F11csqb5bmv!19sChIJDfgK5qrr9EcRtBQBh1BgMUE?authuser=0&hl=fr&rclk=1
14,L'Alexandrin,Fran√ßaise,"4,7 (757)",3558,+33 4 72 61 15 69,lalexandrin.fr,Ó§¥,Lyon,https://www.google.com/maps/place/L%27Alexandrin/data=!4m7!3m6!1s0x47f4ea5e34d148cf:0x447ea0c2472bbcc7!8m2!3d45.760946!4d4.849212!16s%2Fg%2F11bzz3jl0h!19sChIJz0jRNF7q9EcRx7wrR8KgfkQ?authuser=0&hl=fr&rclk=1
15,Monsieur P,Fran√ßaise,"4,8 (860)",4128,+33 4 81 18 70 24,monsieurp.fr,8 Pl. des C√©lestins,Lyon,https://www.google.com/maps/place/Monsieur+P/data=!4m7!3m6!1s0x47f4eafb741aaaab:0x7923014bb4048153!8m2!3d45.7595294!4d4.8316954!16s%2Fg%2F11f2y3m7dv!19sChIJq6oadPvq9EcRU4EEtEsBI3k?authuser=0&hl=fr&rclk=1
16,Les Fils √Ä Maman Lyon,Fran√ßaise,"4,4 (3‚ÄØ039)",13372,+33 4 78 39 57 57,lesfilsamaman.com,Ó§¥,Lyon,https://www.google.com/maps/place/Les+Fils+%C3%80+Maman+Lyon/data=!4m7!3m6!1s0x47f4eaf9107dd203:0x6ac312a16de93c5b!8m2!3d45.7668011!4d4.837248!16s%2Fg%2F1hc1ykz9w!19sChIJA9J9EPnq9EcRWzzpbaESw2o?authuser=0&hl=fr&rclk=1
17,Restaurant L√©on de Lyon,Restaurant,"4,2 (1‚ÄØ164)",4889,+33 4 72 10 11 12,leon-de-lyon.com,Ó§¥,Lyon,https://www.google.com/maps/place/Restaurant+L%C3%A9on+de+Lyon/data=!4m7!3m6!1s0x47f4eaff1b8ff2bd:0xcb51059288bc6018!8m2!3d45.7660077!4d4.8335018!16s%2Fg%2F1tgs08l7!19sChIJvfKPG__q9EcRGGC8iJIFUcs?authuser=0&hl=fr&rclk=1
18,Le B≈ìuf d'Argent,Fran√ßaise,"4,7 (714)",3356,+33 4 78 38 11 20,restaurant-le-boeuf-d-argent.com,Ó§¥,Lyon,https://www.google.com/maps/place/Le+B%C5%93uf+d%27Argent/data=!4m7!3m6!1s0x47f4ebaa567d4519:0x5a0b1a0e4f5f705b!8m2!3d45.7621494!4d4.8264152!16s%2Fg%2F1th7m7fs!19sChIJGUV9Vqrr9EcRW3BfTw4aC1o?authuser=0&hl=fr&rclk=1
19,L'Alsacien Lyon - Bar √† Flammekueche -,Restaurant de sp√©cialit√©s alsaciennes,"4,7 (1‚ÄØ190)",5593,+33 4 26 65 86 01,lalsacien.com,Ó§¥,Lyon,https://www.google.com/maps/place/L%27Alsacien+Lyon+-+Bar+%C3%A0+Flammekueche+-/data=!4m7!3m6!1s0x47f4ebad9206d1a1:0x3540360552f3f01e!8m2!3d45.7652476!4d4.8322511!16s%2Fg%2F11rx9q3nwz!19sChIJodEGkq3r9EcRHvDzUgU2QDU?authuser=0&hl=fr&rclk=1
20,Le Comptoir Des Cousins,Restaurant,"4,7 (758)",3563,+33 4 78 24 35 74,lecomptoirdescousinslyon.fr,Ó§¥,Lyon,https://www.google.com/maps/place/Le+Comptoir+Des+Cousins/data=!4m7!3m6!1s0x47f4ea8c44dd629b:0x316068fea9ae705d!8m2!3d45.7693898!4d4.8553754!16s%2Fg%2F11dyn967h9!19sChIJm2LdRIzq9EcRXXCuqf5oYDE?authuser=0&hl=fr&rclk=1
21,M Restaurant,Fran√ßaise,"4,6 (1‚ÄØ319)",6067,+33 4 78 89 55 19,mrestaurant.fr,Ó§¥,Lyon,https://www.google.com/maps/place/M+Restaurant/data=!4m7!3m6!1s0x47f4eaf057df4ed7:0x54f7adf0875cb258!8m2!3d45.7705598!4d4.8436828!16s%2Fg%2F1tdwpfnd!19sChIJ107fV_Dq9EcRWLJch_Ct91Q?authuser=0&hl=fr&rclk=1
22,Brasserie des Brotteaux,Restaurant,"4,4 (3‚ÄØ027)",13319,+33 4 72 74 03 98,brasseriedesbrotteaux.com,Ó§¥,Lyon,https://www.google.com/maps/place/Brasserie+des+Brotteaux/data=!4m7!3m6!1s0x47f4ea892a91442d:0x1db5ad8c165adf08!8m2!3d45.7679697!4d4.8588146!16s%2Fg%2F120zjq7y!19sChIJLUSRKonq9EcRCN9aFoyttR0?authuser=0&hl=fr&rclk=1
23,Table et Partage,Restaurant,"4,8 (496)",2381,+33 4 87 24 79 74,table-et-partage.com,Ó§¥,Lyon,https://www.google.com/maps/place/Table+et+Partage/data=!4m7!3m6!1s0x47f4ebbeeeedf6e9:0xc9352ae8477e420b!8m2!3d45.7599277!4d4.8660727!16s%2Fg%2F1trsxbhg!19sChIJ6fbt7r7r9EcRC0J-R-gqNck?authuser=0&hl=fr&rclk=1
24,Le Merci√®re,Fran√ßaise,"4,5 (3‚ÄØ098)",13941,+33 4 78 37 67 35,lemerciere.eatbu.com,"Restaurant Le Merci√®re, 56 Rue Merci√®re",Lyon,https://www.google.com/maps/place/Le+Merci%C3%A8re/data=!4m7!3m6!1s0x47f4ea55bba06515:0x4a527b0885b2ec2!8m2!3d45.7625983!4d4.8326908!16s%2Fg%2F1tfmmrd7!19sChIJFWWgu1Xq9EcRwi5biLAnpQQ?authuser=0&hl=fr&rclk=1
25,A NOTRE TABLE,Fran√ßaise,"4,9 (177)",867,+33 9 88 00 96 44,a-notre-table.eatbu.com,Ó§¥,Lyon,https://www.google.com/maps/place/A+NOTRE+TABLE/data=!4m7!3m6!1s0x47f4ebfc51462dd7:0x871ffa0a9e6cae7e!8m2!3d45.7646106!4d4.8677205!16s%2Fg%2F11g_x6hn6h!19sChIJ1y1GUfzr9EcRfq5sngr6H4c?authuser=0&hl=fr&rclk=1
26,Restaurant Gastronomique Christian Tetedoie,Gastronomie fran√ßaise,"4,3 (3‚ÄØ519)",15132,+33 4 78 29 40 10,tetedoie.fr,Ó§¥,Lyon,https://www.google.com/maps/place/Restaurant+Gastronomique+Christian+Tetedoie/data=!4m7!3m6!1s0x47f4ebabf15c0339:0x2e9da72eed567a21!8m2!3d45.7590908!4d4.8233523!16s%2Fg%2F11c2pp_yx_!19sChIJOQNc8avr9EcRIXpW7S6nnS4?authuser=0&hl=fr&rclk=1
27,Restaurant Vatel Lyon,Fran√ßaise,"4,5 (601)",2704,+33 4 78 38 21 92,restaurantvatel.fr,Ó§¥,Lyon,https://www.google.com/maps/place/Restaurant+Vatel+Lyon/data=!4m7!3m6!1s0x47f4ea4c851d34c5:0xf2611e0f5d9c8af0!8m2!3d45.7501984!4d4.8293371!16s%2Fg%2F11_spy3kv!19sChIJxTQdhUzq9EcR8IqcXQ8eYfI?authuser=0&hl=fr&rclk=1
28,Chez Grand-M√®re,Fran√ßaise,"4,4 (3‚ÄØ004)",13218,+33 9 51 61 35 38,chezgrandmere.fr,Ó§¥,Lyon,https://www.google.com/maps/place/Chez+Grand-M%C3%A8re/data=!4m7!3m6!1s0x47f4ebaaf3dcd085:0x22f5121b9a50f4bb!8m2!3d45.7629204!4d4.8272185!16s%2Fg%2F1tctdz13!19sChIJhdDc86rr9EcRu_RQmhsS9SI?authuser=0&hl=fr&rclk=1
29,Au P'tit Zinc,Fran√ßaise,"4,5 (498)",2241,+33 4 72 07 90 81,N/A,Ó§¥,Lyon,https://www.google.com/maps/place/Au+P%27tit+Zinc/data=!4m7!3m6!1s0x47f4eb07ceb932ff:0x7fc7373d7c2d55ed!8m2!3d45.76651!4d4.82033!16s%2Fg%2F1tppr9d3!19sChIJ_zK5zgfr9EcR7VUtfD03x38?authuser=0&hl=fr&rclk=1
30,Bulle - Restaurant de Fourvi√®re - Guy Lassausaie,Fran√ßaise,"4,5 (1‚ÄØ590)",7155,+33 4 85 92 00 13,bullerestaurantfourviere.fr,Ó§¥,Lyon,https://www.google.com/maps/place/Bulle+-+Restaurant+de+Fourvi%C3%A8re+-+Guy+Lassausaie/data=!4m7!3m6!1s0x47f4eb7b6a8575f1:0x78af86f45f627f59!8m2!3d45.7618548!4d4.8226127!16s%2Fg%2F11pz19syyj!19sChIJ8XWFanvr9EcRWX9iX_SGr3g?authuser=0&hl=fr&rclk=1
31,Petit Ogre,Restaurant,"4,7 (1‚ÄØ557)",7318,+33 6 42 66 92 63,petitogre.fr,Ôïä,Lyon,https://www.google.com/maps/place/Petit+Ogre/data=!4m7!3m6!1s0x47f4ea643224de03:0x6a16488e01874f83!8m2!3d45.7559652!4d4.8559759!16s%2Fg%2F12qg80yty!19sChIJA94kMmTq9EcRg0-HAY5IFmo?authuser=0&hl=fr&rclk=1
32,L'Atelier des Augustins,Cuisine gastronomique,"4,8 (1‚ÄØ033)",4958,+33 4 72 00 88 01,latelierdesaugustins.com,Ó§¥,Lyon,https://www.google.com/maps/place/L%27Atelier+des+Augustins/data=!4m7!3m6!1s0x47f4eafe17b59dd5:0x23c41a6051a29d79!8m2!3d45.7677536!4d4.8308335!16s%2Fg%2F1q66zznvw!19sChIJ1Z21F_7q9EcReZ2iUWAaxCM?authuser=0&hl=fr&rclk=1
33,L'Institution,Fran√ßaise,"3,7 (2‚ÄØ510)",9287,+33 4 78 42 52 91,N/A,Ó§¥,Lyon,https://www.google.com/maps/place/L%27Institution/data=!4m7!3m6!1s0x47f4ea5617520d87:0x69686367fb063095!8m2!3d45.7632928!4d4.8355744!16s%2Fg%2F11r8lxfxy!19sChIJhw1SF1bq9EcRlTAG-2djaGk?authuser=0&hl=fr&rclk=1
34,Brasserie Georges,Fran√ßaise,"4,4 (21‚ÄØ435)",94314,+33 4 72 56 54 54,brasseriegeorges.com,Ó§¥,Lyon,https://www.google.com/maps/place/Brasserie+Georges/data=!4m7!3m6!1s0x47f4ea4b3d8af4f7:0x9fd71c9b0d71f8b2!8m2!3d45.7482668!4d4.8283066!16s%2Fm%2F09k6fg7!19sChIJ9_SKPUvq9EcRsvhxDZsc158?authuser=0&hl=fr&rclk=1
35,AntoLio,Restaurant,"4,8 (368)",1766,+33 9 87 57 44 21,antolio.eatbu.com,Ó§¥,Lyon,https://www.google.com/maps/place/AntoLio/data=!4m7!3m6!1s0x47f4eb28d58dca67:0xafbf98b309637435!8m2!3d45.7651578!4d4.8318146!16s%2Fg%2F11j0tb9y2v!19sChIJZ8qN1Sjr9EcRNXRjCbOYv68?authuser=0&hl=fr&rclk=1
36,Monplaisir C√¥t√© Cour,Fran√ßaise,"4,6 (5‚ÄØ121)",23557,+33 4 78 75 00 00,N/A,Ó§¥,Lyon,https://www.google.com/maps/place/Monplaisir+C%C3%B4t%C3%A9+Cour/data=!4m7!3m6!1s0x47f4ea748d545b3b:0x631fcaf0ba7fb53f!8m2!3d45.7452778!4d4.8652778!16s%2Fg%2F1td1jbbg!19sChIJO1tUjXTq9EcRP7V_uvDKH2M?authuser=0&hl=fr&rclk=1
37,Flair Restaurant,Fran√ßaise,"4,8 (1‚ÄØ043)",5006,+33 4 72 56 06 31,restaurantflair.com,Ó§¥,Lyon,https://www.google.com/maps/place/Flair+Restaurant/data=!4m7!3m6!1s0x47f4ea4b78867527:0x94091119abff481e!8m2!3d45.749437!4d4.8296803!16s%2Fg%2F113dj8n5r!19sChIJJ3WGeEvq9EcRHkj_qxkRCZQ?authuser=0&hl=fr&rclk=1
38,Restaurant Le Mus√©e,Restaurant,"4,9 (770)",3773,+33 4 78 37 71 54,N/A,Ó§¥,Lyon,https://www.google.com/maps/place/Restaurant+Le+Mus%C3%A9e/data=!4m7!3m6!1s0x47f4eb92b985c0b9:0xa23487eb4f858b1f!8m2!3d45.7645565!4d4.8346783!16s%2Fg%2F11fsk7tqwc!19sChIJucCFuZLr9EcRH4uFT-uHNKI?authuser=0&hl=fr&rclk=1
39,Aromatic Restaurant,Bistro,"4,7 (991)",4658,+33 4 78 23 73 61,aromaticrestaurant.fr,Ó§¥,Lyon,https://www.google.com/maps/place/Aromatic+Restaurant/data=!4m7!3m6!1s0x47f4eae225655555:0xdb7deacb7a52d576!8m2!3d45.7776519!4d4.833918!16s%2Fg%2F11c6yz7zg0!19sChIJVVVlJeLq9EcRdtVSesvqfds?authuser=0&hl=fr&rclk=1
40,Garden Bistro - Restaurant Fran√ßais Rue Merci√®re,Restaurant,"4,5 (1‚ÄØ553)",6988,+33 4 72 40 08 19,restaurant-gardenbistro.com,50 Rue Merci√®re,Lyon,https://www.google.com/maps/place/Garden+Bistro+-+Restaurant+Fran%C3%A7ais+Rue+Merci%C3%A8re/data=!4m7!3m6!1s0x47f4ea55981d8d4d:0xc59cbbe27cd09c05!8m2!3d45.7627752!4d4.8326934!16s%2Fg%2F11btm9q1mq!19sChIJTY0dmFXq9EcRBZzQfOK7nMU?authuser=0&hl=fr&rclk=1
41,L'atelier des saveurs,Fran√ßaise,"4,6 (669)",3077,+33 4 72 37 99 50,latelier-des-saveurs-lyon.fr,Ó§¥,Lyon,https://www.google.com/maps/place/L%27atelier+des+saveurs/data=!4m7!3m6!1s0x47f4eb5ee42350bf:0x9a3e46bc8b53c9d2!8m2!3d45.7672043!4d4.8448727!16s%2Fg%2F11j024nbny!19sChIJv1Aj5F7r9EcR0slTi7xGPpo?authuser=0&hl=fr&rclk=1
42,La Gargotte,Fran√ßaise,"4,5 (560)",2520,+33 6 21 35 60 01,la-gargotte.fr,15 Rue Royale,Lyon,https://www.google.com/maps/place/La+Gargotte/data=!4m7!3m6!1s0x47f4eafb7302c35b:0x1234e0db57051fbe!8m2!3d45.7713889!4d4.8375!16s%2Fg%2F1t_wnpsq!19sChIJW8MCc_vq9EcRvh8FV9vgNBI?authuser=0&hl=fr&rclk=1
43,La Table d'Eug√®ne,Fran√ßaise,"4,3 (530)",2279,+33 4 78 72 50 16,latabledeugene69.com,18 Rue Royale,Lyon,https://www.google.com/maps/place/La+Table+d%27Eug%C3%A8ne/data=!4m7!3m6!1s0x47f4eafb7575a0fb:0x70487737b80d5f66!8m2!3d45.7709769!4d4.8371562!16s%2Fg%2F1v3hzb73!19sChIJ-6B1dfvq9EcRZl8NuDd3SHA?authuser=0&hl=fr&rclk=1
44,Les Bons Vivants,Restaurant,"4,6 (416)",1914,+33 4 78 30 41 92,lesbonsvivants-lyon.fr,Ó§¥,Lyon,https://www.google.com/maps/place/Les+Bons+Vivants/data=!4m7!3m6!1s0x47f4eb84f1cfddf1:0xa9b1d82d5400ad39!8m2!3d45.7653663!4d4.8319885!16s%2Fg%2F11m4305dxx!19sChIJ8d3P8YTr9EcROa0AVC3Ysak?authuser=0&hl=fr&rclk=1
45,La M√®re Brazier,Cuisine gastronomique,"4,7 (1‚ÄØ185)",5570,+33 4 78 23 17 20,lamerebrazier.fr,Ó§¥,Lyon,https://www.google.com/maps/place/La+M%C3%A8re+Brazier/data=!4m7!3m6!1s0x47f4eafb72713773:0xe5f398b9fc45a817!8m2!3d45.7714429!4d4.8372134!16s%2Fm%2F0h7lpkr!19sChIJczdxcvvq9EcRF6hF_LmY8-U?authuser=0&hl=fr&rclk=1
46,La Table 101,Fran√ßaise,"4,6 (694)",3192,+33 4 78 60 90 23,latable101.fr,Ó§¥,Lyon,https://www.google.com/maps/place/La+Table+101/data=!4m7!3m6!1s0x47f4ea5fd917e67d:0x1e83cc70b640a19e!8m2!3d45.7617267!4d4.8502112!16s%2Fg%2F11h1py0h3!19sChIJfeYX2V_q9EcRnqFAtnDMgx4?authuser=0&hl=fr&rclk=1
47,Canaima Restaurant,Restaurant de cuisine fusion,"4,9 (575)",2818,+33 9 87 05 87 25,restaurantcanaima.fr,Ôïä,Lyon,https://www.google.com/maps/place/Canaima+Restaurant/data=!4m7!3m6!1s0x47f4eb58046adf73:0x9ae5dc5a1574a307!8m2!3d45.7698684!4d4.8343093!16s%2Fg%2F11fp8021fh!19sChIJc99qBFjr9EcRB6N0FVrc5Zo?authuser=0&hl=fr&rclk=1
48,Le Bistrot de Lyon,Bistro,"4,1 (2‚ÄØ250)",9225,+33 4 78 38 47 47,bistrotdelyon.com,Ó§¥,Lyon,https://www.google.com/maps/place/Le+Bistrot+de+Lyon/data=!4m7!3m6!1s0x47f4ea55b0d2d5c1:0xe2388346536e87d5!8m2!3d45.7620807!4d4.8327509!16s%2Fg%2F1v75r7jt!19sChIJwdXSsFXq9EcR1YduU0aDOOI?authuser=0&hl=fr&rclk=1
49,LE PASSE TEMPS,Fran√ßaise,"4,7 (526)",2472,+33 4 72 82 90 14,lepassetemps-restaurant.com,Ó§¥,Lyon,https://www.google.com/maps/place/LE+PASSE+TEMPS/data=!4m7!3m6!1s0x47f4eaf3071abbcd:0x97375a61d62d1816!8m2!3d45.7699!4d4.8495222!16s%2Fg%2F1ttp9nc8!19sChIJzbsaB_Pq9EcRFhgt1mFaN5c?authuser=0&hl=fr&rclk=1
50,COURT BOUILLON,Restaurant,"4,8 (489)",2347,+33 4 78 42 49 33,courtbouillon-lyon.fr,Ó§¥,Lyon,https://www.google.com/maps/place/COURT+BOUILLON/data=!4m7!3m6!1s0x47f4eb5733d93abd:0x685236cdec3c390c!8m2!3d45.7589812!4d4.8265457!16s%2Fg%2F11h9gsyzc5!19sChIJvTrZM1fr9EcRDDk87M02Umg?authuser=0&hl=fr&rclk=1
51,PRAIRIAL ‚Ä¢ Confluence,Gastronomie fran√ßaise,"4,7 (586)",2754,+33 4 87 78 32 51,prairial-restaurant.com,Ó§¥,Lyon,https://www.google.com/maps/place/PRAIRIAL+%E2%80%A2+Confluence/data=!4m7!3m6!1s0x47f4eaff74352b99:0xf8e528b0ccc46ac2!8m2!3d45.7414832!4d4.8229171!16s%2Fg%2F11btwmdmmz!19sChIJmSs1dP_q9EcRwmrEzLAo5fg?authuser=0&hl=fr&rclk=1
52,Burgundy by Matthieu,Cuisine gastronomique,"4,8 (666)",3197,+33 4 72 04 04 51,burgundybym.fr,24 Quai Saint-Antoine,Lyon,https://www.google.com/maps/place/Burgundy+by+Matthieu/data=!4m7!3m6!1s0x47f4ea55a026ec77:0xdf7f81dd2d71d851!8m2!3d45.7627411!4d4.8321301!16s%2Fg%2F11b70kmmmd!19sChIJd-wmoFXq9EcRUdhxLd2Bf98?authuser=0&hl=fr&rclk=1
53,Au 14 F√©vrier,Cuisine fran√ßaise moderne,"4,8 (413)",1982,+33 4 78 92 91 39,ly-au14fevrier.com,36 Rue du B≈ìuf,Lyon,https://www.google.com/maps/place/Au+14+F%C3%A9vrier/data=!4m7!3m6!1s0x47f4ebab81fe93a3:0x5d3532f58738d0a!8m2!3d45.7622468!4d4.8263926!16s%2Fg%2F1tt1gkp_!19sChIJo5P-gavr9EcRCo1zWC9T0wU?authuser=0&hl=fr&rclk=1
54,LES 3 DOMES,Restaurant,"4,6 (1‚ÄØ048)",4821,+33 4 72 41 20 97,restaurantsandbars.accor.com,Ó§¥,Lyon,https://www.google.com/maps/place/LES+3+DOMES/data=!4m7!3m6!1s0x47f4ea4e1fced6d5:0x659ed4644ba8d346!8m2!3d45.754589!4d4.8341436!16s%2Fg%2F1thq4mzj!19sChIJ1dbOH07q9EcRRtOoS2TUnmU?authuser=0&hl=fr&rclk=1
55,Le Poivron Bleu,Fran√ßaise,"4,8 (785)",3768,+33 4 78 24 86 66,lepoivronbleurestaurant.fr,Ó§¥,Lyon,https://www.google.com/maps/place/Le+Poivron+Bleu/data=!4m7!3m6!1s0x47f4ea8c3dfafd7b:0x870bfdd707abfdb5!8m2!3d45.7689421!4d4.8562278!16s%2Fg%2F11b66ff2f5!19sChIJe_36PYzq9EcRtf2rB9f9C4c?authuser=0&hl=fr&rclk=1
56,Lyon Dakar,Restaurant,"4,4 (1‚ÄØ182)",5201,+33 4 78 62 29 54,N/A,Ó§¥,Lyon,https://www.google.com/maps/place/Lyon+Dakar/data=!4m7!3m6!1s0x47f4ea5dc0cd6d2d:0xfa18feb7c3e9642c!8m2!3d45.757466!4d4.848333!16s%2Fg%2F1tj72ynt!19sChIJLW3NwF3q9EcRLGTpw7f-GPo?authuser=0&hl=fr&rclk=1
57,Le Petit Carron,Fran√ßaise,"4,3 (769)",3307,+33 4 78 60 00 57,lepetitcarron-restaurant.com,Ó§¥,Lyon,https://www.google.com/maps/place/Le+Petit+Carron/data=!4m7!3m6!1s0x47f4ea6891670b19:0xe0a6a37f3b726258!8m2!3d45.7526861!4d4.8526385!16s%2Fg%2F1tgxhdkc!19sChIJGQtnkWjq9EcRWGJyO3-jpuA?authuser=0&hl=fr&rclk=1
58,Carr√© Royal,Restaurant,"4,8 (347)",1666,+33 4 78 28 33 98,carreroyal.eu,Ó§¥,Lyon,https://www.google.com/maps/place/Carr%C3%A9+Royal/data=!4m7!3m6!1s0x47f4eafb745aa285:0x5fdcb71d0340e251!8m2!3d45.7710418!4d4.8370748!16s%2Fg%2F1tc_vys6!19sChIJhaJadPvq9EcRUeJAAx233F8?authuser=0&hl=fr&rclk=1
59,Le Laurencin,Restaurant,"4,0 (3‚ÄØ927)",15708,+33 4 78 37 97 37,N/A,24 Rue Saint-Jean,Lyon,https://www.google.com/maps/place/Le+Laurencin/data=!4m7!3m6!1s0x47f4ebaa95db4679:0x5be8f0448f3e0eae!8m2!3d45.763218!4d4.8278889!16s%2Fg%2F1t_wnpt8!19sChIJeUbblarr9EcRrg4-j0Tw6Fs?authuser=0&hl=fr&rclk=1
60,"La table de Max, boeuf et homard",Restaurant,"4,9 (830)",4067,+33 4 78 72 09 73,table-de-max.fr,Ó§¥,Lyon,"https://www.google.com/maps/place/La+table+de+Max,+boeuf+et+homard/data=!4m7!3m6!1s0x47f4ebf3ef8e6d0f:0xcdf3b6d5013cdd06!8m2!3d45.7504529!4d4.8446677!16s%2Fg%2F11g4c0q3sn!19sChIJD22O7_Pr9EcRBt08AdW2880?authuser=0&hl=fr&rclk=1"
61,Matsuri Lyon Presqu'ile,Sushis,"4,5 (4‚ÄØ049)",18220,+33 4 28 70 77 14,matsuri.fr,7 Rue de la Fromagerie,Lyon,https://www.google.com/maps/place/Matsuri+Lyon+Presqu%27ile/data=!4m7!3m6!1s0x47f4eaff41ac8643:0x2325840b2f94a7be!8m2!3d45.7649638!4d4.8337698!16s%2Fg%2F1tdd95t4!19sChIJQ4asQf_q9EcRvqeULwuEJSM?authuser=0&hl=fr&rclk=1
62,RESTAURANT Takao Takano,Cuisine gastronomique,"4,7 (643)",3022,+33 4 82 31 43 39,takaotakano.com,Ó§¥,Lyon,https://www.google.com/maps/place/RESTAURANT+Takao+Takano/data=!4m7!3m6!1s0x47f4eaf0f4abca11:0xf65945a34c82bebe!8m2!3d45.7704363!4d4.8426541!16s%2Fg%2F1yfdpbpgr!19sChIJEcqr9PDq9EcRvr6CTKNFWfY?authuser=0&hl=fr&rclk=1
63,Chez Chabert,Fran√ßaise,"4,5 (2‚ÄØ408)",10836,+33 4 78 42 99 65,chezchabert.com,Ó§¥,Lyon,https://www.google.com/maps/place/Chez+Chabert/data=!4m7!3m6!1s0x47f4ebaabaa372af:0xe2bf9bde6da9a3eb!8m2!3d45.7634215!4d4.8289251!16s%2Fg%2F1tx14qjb!19sChIJr3Kjuqrr9EcR66Opbd6bv-I?authuser=0&hl=fr&rclk=1
64,Restaurant DAMA Lyon,Fran√ßaise,"5,0 (259)",1295,+33 9 84 04 68 48,restaurantdamalyon.fr,Ó§¥,Lyon,https://www.google.com/maps/place/Restaurant+DAMA+Lyon/data=!4m7!3m6!1s0x47f4ebda72b0bcc9:0x44972f924141b1eb!8m2!3d45.772547!4d4.8495845!16s%2Fg%2F11s5swz5f_!19sChIJybywctrr9EcR67FBQZIvl0Q?authuser=0&hl=fr&rclk=1
65,La Nef Des Fous,Fran√ßaise,"4,3 (992)",4266,+33 4 78 42 73 67,la-nef-des-fous.com,5 Rue du B≈ìuf,Lyon,https://www.google.com/maps/place/La+Nef+Des+Fous/data=!4m7!3m6!1s0x47f4ebaa9279b009:0xaa66f1001b5af805!8m2!3d45.7630975!4d4.8274399!16s%2Fg%2F1tcx6c7t!19sChIJCbB5kqrr9EcRBfhaGwDxZqo?authuser=0&hl=fr&rclk=1
66,Bouchon Tupin,Fran√ßaise,"4,8 (1‚ÄØ666)",7997,+33 4 78 37 45 93,bouchontupin.com,30 Rue Tupin,Lyon,https://www.google.com/maps/place/Bouchon+Tupin/data=!4m7!3m6!1s0x47f4ebea4ea10d8f:0xcd7365e601992d6!8m2!3d45.7628785!4d4.8349451!16s%2Fg%2F11gmyhqnn9!19sChIJjw2hTurr9EcR1pIZYF421ww?authuser=0&hl=fr&rclk=1
67,Cercle Rouge,Restaurant,"4,8 (684)",3283,+33 4 78 28 41 98,cercle-rouge.fr,Ó§¥,Lyon,https://www.google.com/maps/place/Cercle+Rouge/data=!4m7!3m6!1s0x47f4eaf91baeaaab:0x72ca3359db679af7!8m2!3d45.7666892!4d4.837197!16s%2Fg%2F11cs3qk113!19sChIJq6quG_nq9EcR95pn21kzynI?authuser=0&hl=fr&rclk=1
68,L'√âtabli,Restaurant,"4,8 (615)",2952,+33 4 78 37 49 83,letabli-restaurant.fr,Ó§¥,Lyon,https://www.google.com/maps/place/L%27%C3%89tabli/data=!4m7!3m6!1s0x47f4ea4d07de4f33:0xa36116a4b05c43c7!8m2!3d45.7528326!4d4.8302156!16s%2Fg%2F11f29z_m77!19sChIJM0_eB03q9EcRx0NcsKQWYaM?authuser=0&hl=fr&rclk=1
69,Le Vivarais,Fran√ßaise,"4,5 (742)",3339,+33 4 78 37 85 15,restaurant-levivarais.fr,Ó§¥,Lyon,https://www.google.com/maps/place/Le+Vivarais/data=!4m7!3m6!1s0x47f4ea4de4734167:0x3f4c0abd573ce2ed!8m2!3d45.753657!4d4.83302!16s%2Fg%2F1tm688fh!19sChIJZ0Fz5E3q9EcR7eI8V70KTD8?authuser=0&hl=fr&rclk=1
70,Caf√© Comptoir Abel,Fran√ßaise,"4,5 (3‚ÄØ555)",15998,+33 4 78 37 46 18,maisonabel.fr,Ó§¥,Lyon,https://www.google.com/maps/place/Caf%C3%A9+Comptoir+Abel/data=!4m7!3m6!1s0x47f4ebb28fbd2eb1:0x1bcc92f5bcb4fa5b!8m2!3d45.7540443!4d4.8258415!16s%2Fg%2F1tf156qz!19sChIJsS69j7Lr9EcRW_q0vPWSzBs?authuser=0&hl=fr&rclk=1
71,Le Book-Lard,Fran√ßaise,"4,6 (500)",2300,+33 9 84 21 38 17,le-book-lard.fr,Ó§¥,Lyon,https://www.google.com/maps/place/Le+Book-Lard/data=!4m7!3m6!1s0x47f4eaf5b330b791:0xa1264fc6131f74b9!8m2!3d45.7656785!4d4.847698!16s%2Fg%2F11bxnnl3j3!19sChIJkbcws_Xq9EcRuXQfE8ZPJqE?authuser=0&hl=fr&rclk=1
72,Le Lafayette Lyon 02,Fran√ßaise,"4,7 (169)",794,+33 4 78 42 23 85,N/A,Ó§¥,Lyon,https://www.google.com/maps/place/Le+Lafayette+Lyon+02/data=!4m7!3m6!1s0x47f4ea57b2207851:0x3deadc82287faeb7!8m2!3d45.7620222!4d4.8375389!16s%2Fg%2F1tfx47hn!19sChIJUXggslfq9EcRt65_KILc6j0?authuser=0&hl=fr&rclk=1
73,Regain restaurant LYON,Restaurant,"4,8 (727)",3490,+33 9 81 10 65 08,regainrestaurant.fr,Ó§¥,Lyon,https://www.google.com/maps/place/Regain+restaurant+LYON/data=!4m7!3m6!1s0x47f4eb4da94831b3:0x1ad8c6e638ca7612!8m2!3d45.7671011!4d4.8302041!16s%2Fg%2F11q24ksqhc!19sChIJszFIqU3r9EcREnbKOObG2Bo?authuser=0&hl=fr&rclk=1
74,La Cuisine,Fran√ßaise,"4,5 (465)",2092,+33 4 78 28 15 31,restaurant-lacuisine.com,9 Rue Saint-Polycarpe,Lyon,https://www.google.com/maps/place/La+Cuisine/data=!4m7!3m6!1s0x47f4eafea0eb999f:0xa3eeb5643a745017!8m2!3d45.7688152!4d4.8344668!16s%2Fg%2F1w111jxn!19sChIJn5nroP7q9EcRF1B0OmS17qM?authuser=0&hl=fr&rclk=1
75,Copain comme canard,Restaurant,"4,8 (895)",4296,+33 4 78 38 24 74,copaincommecanard.com,Ó§¥,Lyon,https://www.google.com/maps/place/Copain+comme+canard/data=!4m7!3m6!1s0x47f4eba1163f0939:0x78d7df7e050312ef!8m2!3d45.7591193!4d4.8429989!16s%2Fg%2F11tcbr0zbj!19sChIJOQk_FqHr9EcR7xIDBX7f13g?authuser=0&hl=fr&rclk=1
76,Rose De Damas,Libanaise,"4,8 (616)",2957,+33 9 81 03 15 54,rose-de-damas-lyon.fr,Ó§¥,Lyon,https://www.google.com/maps/place/Rose+De+Damas/data=!4m7!3m6!1s0x47f4eb94408ce46b:0x3c18e24492d52b87!8m2!3d45.7662756!4d4.864546!16s%2Fg%2F11f6yf32n0!19sChIJa-SMQJTr9EcRhyvVkkTiGDw?authuser=0&hl=fr&rclk=1
77,Mama Restaurant Lyon,Restaurant,"4,2 (1‚ÄØ974)",8291,+33 4 78 02 58 58,fr.mamashelter.com,Ó§¥,Lyon,https://www.google.com/maps/place/Mama+Restaurant+Lyon/data=!4m7!3m6!1s0x47f4ea4103dc2a85:0x7c5b15df97dc21!8m2!3d45.7469827!4d4.8450906!16s%2Fg%2F1ptwxk5js!19sChIJhSrcA0Hq9EcRIdyX3xVbfAA?authuser=0&hl=fr&rclk=1
78,Tigermilk Lyon,Restaurant,"4,7 (3‚ÄØ034)",14260,+33 9 79 00 31 52,tigermilkrestaurants.com,Ôïä,Lyon,https://www.google.com/maps/place/Tigermilk+Lyon/data=!4m7!3m6!1s0x47f4ebb72673b007:0xd6b2ea46ff3d1a3!8m2!3d45.7669618!4d4.8357101!16s%2Fg%2F11sszcy04y!19sChIJB7BzJrfr9EcRo9Hzb6Quaw0?authuser=0&hl=fr&rclk=1
79,Les Terrasses de Lyon,Cuisine gastronomique,"4,4 (551)",2424,+33 4 72 56 56 02,villaflorentine.com,Ôïä,Lyon,https://www.google.com/maps/place/Les+Terrasses+de+Lyon/data=!4m7!3m6!1s0x47f4ebaa69916dc3:0xbb9e1b4a0346de84!8m2!3d45.7633966!4d4.8261652!16s%2Fg%2F11r8j9rsh!19sChIJw22Raarr9EcRhN5GA0obnrs?authuser=0&hl=fr&rclk=1
80,L'Art & la Mani√®re,Fran√ßaise,"4,5 (501)",2254,+33 4 37 27 05 83,art-et-la-maniere.fr,Ôïä,Lyon,https://www.google.com/maps/place/L%27Art+%26+la+Mani%C3%A8re/data=!4m7!3m6!1s0x47f4ea426117ee0d:0x9c6ecef2c366f941!8m2!3d45.751261!4d4.847734!16s%2Fg%2F1tdb85ln!19sChIJDe4XYULq9EcRQflmw_LObpw?authuser=0&hl=fr&rclk=1
81,LE F2 Restaurant,Fran√ßaise,"4,5 (855)",3848,+33 4 78 82 22 22,lef2.com,Ôïä,Lyon,https://www.google.com/maps/place/LE+F2+Restaurant/data=!4m7!3m6!1s0x47f4ea56ccc1e855:0xeac2aee8f54f8272!8m2!3d45.7592145!4d4.8357974!16s%2Fg%2F11c1g6t74f!19sChIJVejBzFbq9EcRcoJP9eiuwuo?authuser=0&hl=fr&rclk=1
82,L'arquebuse,Restaurant,"4,7 (380)",1786,+33 4 82 31 41 97,restaurantlarquebuse.com,Ó§¥,Lyon,https://www.google.com/maps/place/L%27arquebuse/data=!4m7!3m6!1s0x47f4eb35ed7de863:0xe0831031b2fffd53!8m2!3d45.765153!4d4.8348507!16s%2Fg%2F11sqj8t9z0!19sChIJY-h97TXr9EcRU_3_sjEQg-A?authuser=0&hl=fr&rclk=1
83,Chez M'man,Fran√ßaise,"4,2 (2‚ÄØ171)",9118,+33 4 78 42 65 92,chezmman.fr,Ó§¥,Lyon,https://www.google.com/maps/place/Chez+M%27man/data=!4m7!3m6!1s0x47f4ea516dde0d39:0xfac978cd3f3d3ebd!8m2!3d45.7573516!4d4.8347282!16s%2Fg%2F1tcwf9zv!19sChIJOQ3ebVHq9EcRvT49P814yfo?authuser=0&hl=fr&rclk=1
84,Like An Elephant,V√©g√©talienne,"4,8 (771)",3701,+33 9 82 59 59 24,likeanelephant.fr,11 Mnt Saint-S√©bastien,Lyon,https://www.google.com/maps/place/Like+An+Elephant/data=!4m7!3m6!1s0x47f4eae333f24f49:0x7d22b61070bf8189!8m2!3d45.7736361!4d4.834775!16s%2Fg%2F11f_c06cxf!19sChIJSU_yM-Pq9EcRiYG_cBC2In0?authuser=0&hl=fr&rclk=1
85,NOSCH,Restaurant,"4,7 (605)",2844,+33 4 78 42 08 31,nosch.fr,Ó§¥,Lyon,https://www.google.com/maps/place/NOSCH/data=!4m7!3m6!1s0x47f4ea5671040001:0x65391da2f6bb0187!8m2!3d45.7622559!4d4.8350846!16s%2Fg%2F11hd7f2b52!19sChIJAQAEcVbq9EcRhwG79qIdOWU?authuser=0&hl=fr&rclk=1
86,Le Bouchon des Filles,Restaurant,"4,6 (1‚ÄØ679)",7723,+33 4 78 30 40 44,lebouchondesfilles.fr,20 Rue Sergent Blandan,Lyon,https://www.google.com/maps/place/Le+Bouchon+des+Filles/data=!4m7!3m6!1s0x47f4eb01f439fe73:0xc28debbb730b4077!8m2!3d45.7686729!4d4.8293599!16s%2Fg%2F1tg_8v23!19sChIJc_459AHr9EcRd0ALc7vrjcI?authuser=0&hl=fr&rclk=1
87,Le Bouchon des Cordeliers,Fran√ßaise,"4,7 (2‚ÄØ414)",11346,+33 4 78 03 33 53,bouchondescordeliers.com,Ó§¥,Lyon,https://www.google.com/maps/place/Le+Bouchon+des+Cordeliers/data=!4m7!3m6!1s0x47f4eaf87d816171:0x44711cc7231a974b!8m2!3d45.7643717!4d4.8377061!16s%2Fg%2F11bxg5l6lp!19sChIJcWGBffjq9EcRS5caI8cccUQ?authuser=0&hl=fr&rclk=1
88,Ludovic B Restaurant,Fran√ßaise,"4,5 (535)",2408,+33 4 37 24 19 28,ludovicb.fr,Ó§¥,Lyon,https://www.google.com/maps/place/Ludovic+B+Restaurant/data=!4m7!3m6!1s0x47f4ea8bbcb2a9ed:0xfc4ec6c1f7f519f1!8m2!3d45.766403!4d4.8546716!16s%2Fg%2F1v44prx7!19sChIJ7amyvIvq9EcR8Rn198HGTvw?authuser=0&hl=fr&rclk=1
89,Le Garet,Fran√ßaise,"4,5 (1‚ÄØ010)",4545,+33 4 78 28 16 94,N/A,7 Rue du Garet,Lyon,https://www.google.com/maps/place/Le+Garet/data=!4m7!3m6!1s0x47f4eaf917877381:0x8eccccf3603f33ad!8m2!3d45.7669381!4d4.8369146!16s%2Fg%2F1txc6cwy!19sChIJgXOHF_nq9EcRrTM_YPPMzI4?authuser=0&hl=fr&rclk=1
90,LE BISTROT ABEL - Bistrot lyonnais gastronomique,Restaurant,"4,6 (1‚ÄØ427)",6564,+33 4 37 57 92 51,maisonabel.fr,Ó§¥,Lyon,https://www.google.com/maps/place/LE+BISTROT+ABEL+-+Bistrot+lyonnais+gastronomique/data=!4m7!3m6!1s0x47f4eaf8834c1b1b:0x10951e274c8e84e5!8m2!3d45.7640359!4d4.8369349!16s%2Fg%2F11cjrf15gq!19sChIJGxtMg_jq9EcR5YSOTCcelRA?authuser=0&hl=fr&rclk=1
91,Au Rendez vous des Amis lyon 6,Restaurant,"4,2 (794)",3335,+33 4 78 24 37 54,instagram.com,Ó§¥,Lyon,https://www.google.com/maps/place/Au+Rendez+vous+des+Amis+lyon+6/data=!4m7!3m6!1s0x47f4ea8798af2693:0x266858f31da0672a!8m2!3d45.7638815!4d4.8639732!16s%2Fg%2F1tg34kly!19sChIJkyavmIfq9EcRKmegHfNYaCY?authuser=0&hl=fr&rclk=1
92,Empanadas Club,Restaurant,"4,8 (1‚ÄØ128)",5414,+33 4 83 43 27 23,empanadasclub.com,Ó§¥,Lyon,https://www.google.com/maps/place/Empanadas+Club/data=!4m7!3m6!1s0x47f4eb683d456d9f:0x3c671f9bd8e39429!8m2!3d45.7666699!4d4.8346445!16s%2Fg%2F11j3pscnkw!19sChIJn21FPWjr9EcRKZTj2JsfZzw?authuser=0&hl=fr&rclk=1
93,Culina Hortus,V√©g√©tarienne,"4,7 (930)",4371,+33 4 69 84 71 08,culinahortus.com,Ó§¥,Lyon,https://www.google.com/maps/place/Culina+Hortus/data=!4m7!3m6!1s0x47f4eb5dc2e61c57:0xe67c5e6118fd62a9!8m2!3d45.7666511!4d4.8374171!16s%2Fg%2F11gnqf3zgj!19sChIJVxzmwl3r9EcRqWL9GGFefOY?authuser=0&hl=fr&rclk=1
94,Cuisine et D√©pendances By Fabrice BONNOT,Gastronomie fran√ßaise,"4,5 (448)",2016,+33 4 78 37 45 02,fabricebonnot.fr,Ó§¥,Lyon,https://www.google.com/maps/place/Cuisine+et+D%C3%A9pendances+By+Fabrice+BONNOT/data=!4m7!3m6!1s0x47f4ea4c6411b981:0x5ce73b119554163c!8m2!3d45.7506878!4d4.8303376!16s%2Fg%2F1tfycx_0!19sChIJgbkRZEzq9EcRPBZUlRE751w?authuser=0&hl=fr&rclk=1
95,La T√™te De Lard,Fran√ßaise,"4,4 (1‚ÄØ120)",4928,+33 4 78 27 96 80,bouchonlatetedelard.fr,Ó§¥,Lyon,https://www.google.com/maps/place/La+T%C3%AAte+De+Lard/data=!4m7!3m6!1s0x47f4eafeabaec173:0x2c8d3abb479ad163!8m2!3d45.7684939!4d4.8354487!16s%2Fg%2F1tfc1c71!19sChIJc8Guq_7q9EcRY9GaR7s6jSw?authuser=0&hl=fr&rclk=1
96,Le Moment,Fran√ßaise,"4,3 (805)",3462,+33 4 78 83 23 71,restaurantlemoment.fr,Ó§¥,Lyon,https://www.google.com/maps/place/Le+Moment/data=!4m7!3m6!1s0x47f4eb6b8907b683:0x60ae56e1e408fb4e!8m2!3d45.779458!4d4.807089!16s%2Fg%2F1tfq8kyb!19sChIJg7YHiWvr9EcRTvsI5OFWrmA?authuser=0&hl=fr&rclk=1
97,Restaurant Maison Baud,Restaurant,"4,8 (128)",614,+33 4 81 11 86 19,maisonbaud.fr,Ó§¥,Lyon,https://www.google.com/maps/place/Restaurant+Maison+Baud/data=!4m7!3m6!1s0x47f4eb8e0fd5ff0d:0x2564ee352db9bcac!8m2!3d45.7668257!4d4.8373988!16s%2Fg%2F11v0tmyb8h!19sChIJDf_VD47r9EcRrLy5LTXuZCU?authuser=0&hl=fr&rclk=1
98,Restaurant Circle,Gastronomie fran√ßaise,"5,0 (202)",1010,+33 4 78 27 86 93,circlelyon.fr,Ó§¥,Lyon,https://www.google.com/maps/place/Restaurant+Circle/data=!4m7!3m6!1s0x47f4ebf207ed5d73:0xcb5a3d8c652ca2ef!8m2!3d45.764925!4d4.8325185!16s%2Fg%2F11vb2zgf_5!19sChIJc13tB_Lr9EcR76IsZYw9Wss?authuser=0&hl=fr&rclk=1
99,L'Entrec√¥te,Viande,"4,1 (4‚ÄØ234)",17359,+33 4 78 28 16 64,entrecote.fr,10 Rue de la R√©publique,Lyon,https://www.google.com/maps/place/L%27Entrec%C3%B4te/data=!4m7!3m6!1s0x47f4eaf8da89aa99:0xfba9a7d69a3d6a20!8m2!3d45.765624!4d4.835743!16s%2Fg%2F1td5whrd!19sChIJmaqJ2vjq9EcRIGo9mtanqfs?authuser=0&hl=fr&rclk=1
100,Notre Maison,Restaurant,"4,7 (1‚ÄØ305)",6134,+33 4 72 41 78 48,bouchonnotremaison.com,Ó§¥,Lyon,https://www.google.com/maps/place/Notre+Maison/data=!4m7!3m6!1s0x47f4eb0070894b29:0x87658339bb3030c1!8m2!3d45.7645255!4d4.8276811!16s%2Fg%2F1tdb__8b!19sChIJKUuJcADr9EcRwTAwuzmDZYc?authuser=0&hl=fr&rclk=1
101,L' Atelier d' Yvonne,Restaurant,"4,4 (1‚ÄØ515)",6666,+33 4 78 37 55 90,restaurant-atelier-yvonne.fr,Ó§¥,Lyon,https://www.google.com/maps/place/L%27+Atelier+d%27+Yvonne/data=!4m7!3m6!1s0x47f4ea5170f30aa7:0x4ee785141256e1d3!8m2!3d45.7571731!4d4.8346226!16s%2Fg%2F1xg5s04l!19sChIJpwrzcFHq9EcR0-FWEhSF504?authuser=0&hl=fr&rclk=1
102,Bichon Restaurant,Restaurant,"4,7 (504)",2369,N/A,bichon.restaurant,9 Rue Neuve,Lyon,https://www.google.com/maps/place/Bichon+Restaurant/data=!4m7!3m6!1s0x47f4eb1458800817:0xfd737f5a3bfa8cfc!8m2!3d45.7652712!4d4.8351243!16s%2Fg%2F11sysnw170!19sChIJFwiAWBTr9EcR_Iz6O1p_c_0?authuser=0&hl=fr&rclk=1
103,Contre-Champ,Bistro,"4,6 (762)",3505,+33 4 72 40 91 47,contre-champ.com,Ó§¥,Lyon,https://www.google.com/maps/place/Contre-Champ/data=!4m7!3m6!1s0x47f4ebaa567d3de9:0x43c8f592eb4883ca!8m2!3d45.7621685!4d4.8264591!16s%2Fg%2F1hm50249l!19sChIJ6T19Vqrr9EcRyoNI65L1yEM?authuser=0&hl=fr&rclk=1
104,La Nef Des Fous,Fran√ßaise,"4,3 (992)",4266,+33 4 78 42 73 67,la-nef-des-fous.com,5 Rue du B≈ìuf,Lyon,https://www.google.com/maps/place/La+Nef+Des+Fous/data=!4m7!3m6!1s0x47f4ebaa9279b009:0xaa66f1001b5af805!8m2!3d45.7630975!4d4.8274399!16s%2Fg%2F1tcx6c7t!19sChIJCbB5kqrr9EcRBfhaGwDxZqo?authuser=0&hl=fr&rclk=1
105,Caf√© Terroir Lyon,Restaurant,"4,5 (629)",2830,+33 9 53 36 08 11,cafeterroir.fr,Ó§¥,Lyon,https://www.google.com/maps/place/Caf%C3%A9+Terroir+Lyon/data=!4m7!3m6!1s0x47f4ea53873d490b:0xf06b7760c8628489!8m2!3d45.7591776!4d4.8318387!16s%2Fg%2F11b808_fxs!19sChIJC0k9h1Pq9EcRiYRiyGB3a_A?authuser=0&hl=fr&rclk=1
106,Les Demoiselles de Rochefort,Fran√ßaise,"4,5 (344)",1548,+33 4 72 00 07 06,restaurant-lesdemoiselles.com,Ôïä,Lyon,https://www.google.com/maps/place/Les+Demoiselles+de+Rochefort/data=!4m7!3m6!1s0x47f4eafc43d3a579:0x398ab223b36f5f76!8m2!3d45.7700157!4d4.8345327!16s%2Fg%2F11b6dqpbj1!19sChIJeaXTQ_zq9EcRdl9vsyOyijk?authuser=0&hl=fr&rclk=1
107,CHEZ ANTONIN - √âcailler aux Halles de Lyon Paul Bocuse,Fruits de mer,"4,7 (299)",1405,+33 4 78 94 09 13,epicery.com,Ó§¥,Lyon,https://www.google.com/maps/place/CHEZ+ANTONIN+-+%C3%89cailler+aux+Halles+de+Lyon+Paul+Bocuse/data=!4m7!3m6!1s0x47f4eaf557dd1c59:0xb37dc465881c4e80!8m2!3d45.7630433!4d4.8505866!16s%2Fg%2F1tdjqh9x!19sChIJWRzdV_Xq9EcRgE4ciGXEfbM?authuser=0&hl=fr&rclk=1
108,Les T√©l√©phones Restaurant,Restaurant,"4,3 (496)",2133,+33 4 74 70 07 00,fourviere-hotel.com,Ó§¥,Lyon,https://www.google.com/maps/place/Les+T%C3%A9l%C3%A9phones+Restaurant/data=!4m7!3m6!1s0x47f4eba5bfd3752f:0xc6f6c103b6445e8d!8m2!3d45.7585764!4d4.8165245!16s%2Fg%2F11c6dgvym1!19sChIJL3XTv6Xr9EcRjV5EtgPB9sY?authuser=0&hl=fr&rclk=1
109,La Sommeliere,Cuisine gastronomique,"4,9 (192)",941,+33 4 78 79 86 45,la-sommeliere.net,6 Rue Mourguet,Lyon,https://www.google.com/maps/place/La+Sommeliere/data=!4m7!3m6!1s0x47f4ebab81830e03:0xcbc66ba2d4fb52cb!8m2!3d45.7597776!4d4.825982!16s%2Fg%2F11fz8_cy4d!19sChIJAw6Dgavr9EcRy1L71KJrxss?authuser=0&hl=fr&rclk=1
110,Caf√© du Rh√¥ne - Restaurant Lyon,Restaurant,"4,5 (930)",4185,+33 4 78 95 44 13,cafedurhone.fr,Ó§¥,Lyon,https://www.google.com/maps/place/Caf%C3%A9+du+Rh%C3%B4ne+-+Restaurant+Lyon/data=!4m7!3m6!1s0x47f4ea5a3c7357e1:0x44ac1d5f22d2053b!8m2!3d45.758112!4d4.840948!16s%2Fg%2F11bbmmlhqq!19sChIJ4VdzPFrq9EcROwXSIl8drEQ?authuser=0&hl=fr&rclk=1
111,L'Espace Carnot,Restaurant,"3,5 (1‚ÄØ227)",4294,+33 4 72 41 98 40,espacecarnot.fr,Ó§¥,Lyon,https://www.google.com/maps/place/L%27Espace+Carnot/data=!4m7!3m6!1s0x47f4ea4cd0169a67:0x8e986bf2baf51075!8m2!3d45.75172!4d4.8282608!16s%2Fg%2F1260vxp0d!19sChIJZ5oW0Ezq9EcRdRD1uvJrmI4?authuser=0&hl=fr&rclk=1
112,Le Jean Moulin,Fran√ßaise,"4,6 (475)",2185,+33 4 78 37 37 97,lejeanmoulin-lyon.com,45 Rue de S√®ze,Lyon,https://www.google.com/maps/place/Le+Jean+Moulin/data=!4m7!3m6!1s0x47f4eaf8f527cc8b:0x312ef17e2a4ca16d!8m2!3d45.7684139!4d4.8479889!16s%2Fg%2F1tgvczzv!19sChIJi8wn9fjq9EcRbaFMKn7xLjE?authuser=0&hl=fr&rclk=1
113,Chez Paul,Fran√ßaise,"4,5 (1‚ÄØ614)",7263,+33 4 78 28 35 83,bouchonchezpaul.fr,11 Rue Major Martin,Lyon,https://www.google.com/maps/place/Chez+Paul/data=!4m7!3m6!1s0x47f4eafef93369cd:0x2b9c5888b7256293!8m2!3d45.7667712!4d4.832623!16s%2Fg%2F1td75y04!19sChIJzWkz-f7q9EcRk2Ilt4hYnCs?authuser=0&hl=fr&rclk=1
114,Auberge des canuts - Bouchon Lyonnais,Fran√ßaise,"4,3 (2‚ÄØ348)",10096,+33 9 86 50 36 26,auberge-des-canuts.com,Ó§¥,Lyon,https://www.google.com/maps/place/Auberge+des+canuts+-+Bouchon+Lyonnais/data=!4m7!3m6!1s0x47f4ebab060d706f:0x7f9bc53f037ca0a8!8m2!3d45.7611847!4d4.8267622!16s%2Fg%2F11f32qpxxr!19sChIJb3ANBqvr9EcRqKB8Az_Fm38?authuser=0&hl=fr&rclk=1
115,ROI Alexandre,Russe,"4,5 (572)",2574,+33 9 72 58 05 70,roialexandre-lyon.fr,Ó§¥,Lyon,https://www.google.com/maps/place/ROI+Alexandre/data=!4m7!3m6!1s0x47f4ea7a16f95555:0x6350b45fef88ded6!8m2!3d45.7541938!4d4.8645347!16s%2Fg%2F11c5s880x7!19sChIJVVX5Fnrq9EcR1t6I71-0UGM?authuser=0&hl=fr&rclk=1
116,Le Touareg,Marocaine,"4,3 (1‚ÄØ222)",5255,+33 4 72 77 69 66,letouareg.fr,38 Rue du B≈ìuf,Lyon,https://www.google.com/maps/place/Le+Touareg/data=!4m7!3m6!1s0x47f4ebaa546d1a85:0x55e4084514e484c9!8m2!3d45.762254!4d4.826411!16s%2Fg%2F1tmxdxmn!19sChIJhRptVKrr9EcRyYTkFEUI5FU?authuser=0&hl=fr&rclk=1
117,Chez M'man,Fran√ßaise,"4,2 (2‚ÄØ171)",9118,+33 4 78 42 65 92,chezmman.fr,Ó§¥,Lyon,https://www.google.com/maps/place/Chez+M%27man/data=!4m7!3m6!1s0x47f4ea516dde0d39:0xfac978cd3f3d3ebd!8m2!3d45.7573516!4d4.8347282!16s%2Fg%2F1tcwf9zv!19sChIJOQ3ebVHq9EcRvT49P814yfo?authuser=0&hl=fr&rclk=1
118,Maison Moly,Restaurant,"4,9 (573)",2808,+33 4 78 08 89 52,maisonmoly.fr,Ó§¥,Lyon,https://www.google.com/maps/place/Maison+Moly/data=!4m7!3m6!1s0x47f4ebe8ace1b81b:0xe8f043b0c8df49af!8m2!3d45.7666456!4d4.8373553!16s%2Fg%2F11h4cq9ggd!19sChIJG7jhrOjr9EcRr0nfyLBD8Og?authuser=0&hl=fr&rclk=1
119,Sipr√®s restaurant,Restaurant,"4,9 (217)",1063,+33 4 87 78 43 02,sipresrestaurant.fr,Ó§¥,Lyon,https://www.google.com/maps/place/Sipr%C3%A8s+restaurant/data=!4m7!3m6!1s0x47f4eb908398c647:0xd29e9fc056f18ca9!8m2!3d45.7492271!4d4.8413432!16s%2Fg%2F11t_w7kk6m!19sChIJR8aYg5Dr9EcRqYzxVsCfntI?authuser=0&hl=fr&rclk=1
120,L'arquebuse,Restaurant,"4,7 (380)",1786,+33 4 82 31 41 97,restaurantlarquebuse.com,Ó§¥,Lyon,https://www.google.com/maps/place/L%27arquebuse/data=!4m7!3m6!1s0x47f4eb35ed7de863:0xe0831031b2fffd53!8m2!3d45.765153!4d4.8348507!16s%2Fg%2F11sqj8t9z0!19sChIJY-h97TXr9EcRU_3_sjEQg-A?authuser=0&hl=fr&rclk=1
121,FRAZARIN,Italienne,"4,9 (466)",2283,+33 9 82 39 92 73,frazarin.com,Ó§¥,Lyon,https://www.google.com/maps/place/FRAZARIN/data=!4m7!3m6!1s0x47f4eb1df3034cc3:0xe1dfb4627d18503b!8m2!3d45.7513281!4d4.8297064!16s%2Fg%2F11lg_fg72k!19sChIJw0wD8x3r9EcRO1AYfWK03-E?authuser=0&hl=fr&rclk=1
